ONEWEB-0628             
1 55169U 23004AF  25308.50439655 -.00000302  00000+0 -87483-3 0  9999
2 55169  87.8976  35.2836 0001034  99.3124 260.8121 13.12443643138560
ONEWEB-0629             
1 55170U 23004AG  25308.34243937  .00000040  00000+0  69590-4 0  9996
2 55170  87.9125  50.5896 0001436 109.0536 251.0751 13.17648065137972
ONEWEB-0631             
1 55171U 23004AH  25308.50669892  .00000110  00000+0  24671-3 0  9995
2 55171  87.9229  20.0558 0002134  85.8269 274.3107 13.18688085140069
ONEWEB-0709             
1 55172U 23004AJ  25308.35774970 -.00000669  00000+0 -19243-2 0  9992
2 55172  87.8848  65.8603 0002474  92.4883 267.6528 13.11416240136407
ONEWEB-0710             
1 55173U 23004AK  25308.35678588  .00000003  00000+0 -24255-4 0  9993
2 55173  87.9126  50.5809 0001572  96.7428 263.3883 13.17650347137971
ONEWEB-0711             
1 55174U 23004AL  25308.40523196  .00000457  00000+0  12526-2 0  9992
2 55174  87.8857  65.8218 0001068  77.5783 282.5465 13.11413980136372
ONEWEB-0713             
1 55175U 23004AM  25308.34758058 -.00000289  00000+0 -85232-3 0  9993
2 55175  87.8849  65.8375 0001376  92.0423 268.0862 13.11416842136351
ONEWEB-0715             
1 55176U 23004AN  25308.34250213 -.00000069  00000+0 -23087-3 0  9990
2 55176  87.8852  65.8385 0002132  84.1625 275.9746 13.11416402136398
